sat01315
1 01315U 65027B   20046.69705271  .00000057  00000-0  18363-3 0  9995
2 01315  90.2921 321.7541 0032567 119.3729 300.4015 12.92607640588161
